QIANFAN-25              
1 61558U 24185G   25336.47380625  .00000617  00000+0  36916-3 0  9990
2 61558  88.9810  79.3491 0009161 355.8751   4.2354 14.05894171 68063
QIANFAN-26              
1 61559U 24185H   25336.50870242  .00000362  00000+0  34884-3 0  9993
2 61559  88.9812  80.8526 0006768  56.9503 303.2313 13.77801873 67269
QIANFAN-27              
1 61560U 24185J   25336.51306466  .00000905  00000+0  36420-3 0  9999
2 61560  88.9807  78.1402 0006508 336.8927  23.1973 14.27312671 68709
QIANFAN-28              
1 61561U 24185K   25336.50022625  .00001362  00000+0  54346-3 0  9996
2 61561  88.9825  78.1441 0005780 337.2489  22.8449 14.28000352 68718
QIANFAN-29              
1 61562U 24185L   25336.51838715  .00000234  00000+0  34326-3 0  9996
2 61562  88.9789  82.3644 0011690  84.7313 275.5172 13.51005236 66413
QIANFAN-30              
1 61563U 24185M   25336.48549302  .00000214  00000+0  31778-3 0  9990
2 61563  88.9810  81.8892 0009060  73.6609 286.5537 13.49984657 66687
QIANFAN-31              
1 61564U 24185N   25336.51410656  .00000161  00000+0  20663-3 0  9996
2 61564  88.9793  81.7046 0008345  69.5407 290.6643 13.57959229 66773
QIANFAN-32              
1 61565U 24185P   25336.53368608  .00000228  00000+0  33550-3 0  9991
2 61565  88.9853  82.0154 0011239  94.9100 265.3334 13.50729801 66661
